CCSDS_OMM_VERS = 2.0
CREATION_DATE  = 
ORIGINATOR     = 

OBJECT_NAME    = COSMOS 1933
OBJECT_ID      = 1988-020A
CENTER_NAME    = EARTH
REF_FRAME      = TEME
TIME_SYSTEM    = UTC
MEAN_ELEMENT_THEORY = SGP/SGP4

EPOCH          = 2025-12-26T08:08:53.225088
MEAN_MOTION    = 15.17221034
ECCENTRICITY   = .0006427
INCLINATION    = 82.5139
RA_OF_ASC_NODE = 323.4402
ARG_OF_PERICENTER = 92.1144
MEAN_ANOMALY   = 268.0825

EPHEMERIS_TYPE = 0
CLASSIFICATION_TYPE = U
NORAD_CAT_ID   = 18958
ELEMENT_SET_NO = 999
REV_AT_EPOCH   = 3910
BSTAR          = .22352248E-3
MEAN_MOTION_DOT = .4475E-4
MEAN_MOTION_DDOT = 0

CCSDS_OMM_VERS = 2.0
CREATION_DATE  = 
ORIGINATOR     = 

OBJECT_NAME    = SL-3 R/B
OBJECT_ID      = 1988-032B
CENTER_NAME    = EARTH
REF_FRAME      = TEME
TIME_SYSTEM    = UTC
MEAN_ELEMENT_THEORY = SGP/SGP4

EPOCH          = 2025-12-26T13:33:55.459872
MEAN_MOTION    = 15.18879197
ECCENTRICITY   = .0028023
INCLINATION    = 97.5099
RA_OF_ASC_NODE = 339.1919
ARG_OF_PERICENTER = 126.3208
MEAN_ANOMALY   = 234.0620

EPHEMERIS_TYPE = 0
CLASSIFICATION_TYPE = U
NORAD_CAT_ID   = 19046
ELEMENT_SET_NO = 999
REV_AT_EPOCH   = 4100
BSTAR          = .28664608E-3
MEAN_MOTION_DOT = .5969E-4
MEAN_MOTION_DDOT = 0

CCSDS_OMM_VERS = 2.0
CREATION_DATE  = 
ORIGINATOR     = 

OBJECT_NAME    = SL-16 R/B
OBJECT_ID      = 1988-039B
CENTER_NAME    = EARTH
REF_FRAME      = TEME
TIME_SYSTEM    = UTC
MEAN_ELEMENT_THEORY = SGP/SGP4

EPOCH          = 2025-12-26T15:04:47.095104
MEAN_MOTION    = 14.19599609
ECCENTRICITY   = .00195505
INCLINATION    = 71.0126
RA_OF_ASC_NODE = 223.0329
ARG_OF_PERICENTER = 92.5007
MEAN_ANOMALY   = 267.8357

EPHEMERIS_TYPE = 0
CLASSIFICATION_TYPE = U
NORAD_CAT_ID   = 19120
ELEMENT_SET_NO = 999
REV_AT_EPOCH   = 94801
BSTAR          = -.28178541E-4
MEAN_MOTION_DOT = -.108E-5
MEAN_MOTION_DDOT = 0

CCSDS_OMM_VERS = 2.0
CREATION_DATE  = 
ORIGINATOR     = 

OBJECT_NAME    = COSMOS 1953
OBJECT_ID      = 1988-050A
CENTER_NAME    = EARTH
REF_FRAME      = TEME
TIME_SYSTEM    = UTC
MEAN_ELEMENT_THEORY = SGP/SGP4

EPOCH          = 2025-12-17T18:00:23.829120
MEAN_MOTION    = 15.26995692
ECCENTRICITY   = .00135407
INCLINATION    = 82.5093
RA_OF_ASC_NODE = 240.5536
ARG_OF_PERICENTER = 56.0210
MEAN_ANOMALY   = 304.2313

EPHEMERIS_TYPE = 0
CLASSIFICATION_TYPE = U
NORAD_CAT_ID   = 19210
ELEMENT_SET_NO = 999
REV_AT_EPOCH   = 2527
BSTAR          = .17925093E-3
MEAN_MOTION_DOT = .4793E-4
MEAN_MOTION_DDOT = 0

CCSDS_OMM_VERS = 2.0
CREATION_DATE  = 
ORIGINATOR     = 

OBJECT_NAME    = SL-8 R/B
OBJECT_ID      = 1988-053B
CENTER_NAME    = EARTH
REF_FRAME      = TEME
TIME_SYSTEM    = UTC
MEAN_ELEMENT_THEORY = SGP/SGP4

EPOCH          = 2025-12-26T02:46:07.693248
MEAN_MOTION    = 14.38867126
ECCENTRICITY   = .00189659
INCLINATION    = 74.0467
RA_OF_ASC_NODE = 248.0687
ARG_OF_PERICENTER = 87.1511
MEAN_ANOMALY   = 63.7351

EPHEMERIS_TYPE = 0
CLASSIFICATION_TYPE = U
NORAD_CAT_ID   = 19257
ELEMENT_SET_NO = 999
REV_AT_EPOCH   = 96601
BSTAR          = .89602896E-4
MEAN_MOTION_DOT = .25E-5
MEAN_MOTION_DDOT = 0

CCSDS_OMM_VERS = 2.0
CREATION_DATE  = 
ORIGINATOR     = 

OBJECT_NAME    = COSMOS 1975
OBJECT_ID      = 1988-093A
CENTER_NAME    = EARTH
REF_FRAME      = TEME
TIME_SYSTEM    = UTC
MEAN_ELEMENT_THEORY = SGP/SGP4

EPOCH          = 2025-12-26T14:40:44.317056
MEAN_MOTION    = 15.26666685
ECCENTRICITY   = .00129811
INCLINATION    = 82.5196
RA_OF_ASC_NODE = 190.9395
ARG_OF_PERICENTER = 69.5288
MEAN_ANOMALY   = 290.7343

EPHEMERIS_TYPE = 0
CLASSIFICATION_TYPE = U
NORAD_CAT_ID   = 19573
ELEMENT_SET_NO = 999
REV_AT_EPOCH   = 825
BSTAR          = .32800616E-3
MEAN_MOTION_DOT = .8657E-4
MEAN_MOTION_DDOT = 0

CCSDS_OMM_VERS = 2.0
CREATION_DATE  = 
ORIGINATOR     = 

OBJECT_NAME    = SL-14 R/B
OBJECT_ID      = 1988-093B
CENTER_NAME    = EARTH
REF_FRAME      = TEME
TIME_SYSTEM    = UTC
MEAN_ELEMENT_THEORY = SGP/SGP4

EPOCH          = 2025-12-26T13:46:08.175936
MEAN_MOTION    = 14.85564064
ECCENTRICITY   = .00192417
INCLINATION    = 82.5318
RA_OF_ASC_NODE = 110.6857
ARG_OF_PERICENTER = 280.8233
MEAN_ANOMALY   = 89.5323

EPHEMERIS_TYPE = 0
CLASSIFICATION_TYPE = U
NORAD_CAT_ID   = 19574
ELEMENT_SET_NO = 999
REV_AT_EPOCH   = 99018
BSTAR          = .68775587E-4
MEAN_MOTION_DOT = .62E-5
MEAN_MOTION_DDOT = 0

CCSDS_OMM_VERS = 2.0
CREATION_DATE  = 
ORIGINATOR     = 

OBJECT_NAME    = SL-16 R/B
OBJECT_ID      = 1988-102B
CENTER_NAME    = EARTH
REF_FRAME      = TEME
TIME_SYSTEM    = UTC
MEAN_ELEMENT_THEORY = SGP/SGP4

EPOCH          = 2025-12-26T14:03:14.082624
MEAN_MOTION    = 14.16142543
ECCENTRICITY   = .00122306
INCLINATION    = 71.0007
RA_OF_ASC_NODE = 305.3099
ARG_OF_PERICENTER = 128.1541
MEAN_ANOMALY   = 232.0687

EPHEMERIS_TYPE = 0
CLASSIFICATION_TYPE = U
NORAD_CAT_ID   = 19650
ELEMENT_SET_NO = 999
REV_AT_EPOCH   = 91654
BSTAR          = .45319256E-4
MEAN_MOTION_DOT = .42E-6
MEAN_MOTION_DDOT = 0

CCSDS_OMM_VERS = 2.0
CREATION_DATE  = 
ORIGINATOR     = 

OBJECT_NAME    = INTERCOSMOS 24
OBJECT_ID      = 1989-080A
CENTER_NAME    = EARTH
REF_FRAME      = TEME
TIME_SYSTEM    = UTC
MEAN_ELEMENT_THEORY = SGP/SGP4

EPOCH          = 2025-12-26T11:42:55.889568
MEAN_MOTION    = 12.59461373
ECCENTRICITY   = .11890163
INCLINATION    = 82.6055
RA_OF_ASC_NODE = 152.0147
ARG_OF_PERICENTER = 102.6413
MEAN_ANOMALY   = 271.0011

EPHEMERIS_TYPE = 0
CLASSIFICATION_TYPE = U
NORAD_CAT_ID   = 20261
ELEMENT_SET_NO = 999
REV_AT_EPOCH   = 65758
BSTAR          = .20878037E-3
MEAN_MOTION_DOT = .741E-5
MEAN_MOTION_DDOT = 0

CCSDS_OMM_VERS = 2.0
CREATION_DATE  = 
ORIGINATOR     = 

OBJECT_NAME    = SL-14 R/B
OBJECT_ID      = 1989-080C
CENTER_NAME    = EARTH
REF_FRAME      = TEME
TIME_SYSTEM    = UTC
MEAN_ELEMENT_THEORY = SGP/SGP4

EPOCH          = 2025-12-26T14:02:38.055552
MEAN_MOTION    = 12.50423873
ECCENTRICITY   = .12303801
INCLINATION    = 82.5914
RA_OF_ASC_NODE = 220.1323
ARG_OF_PERICENTER = 351.9497
MEAN_ANOMALY   = 6.3330

EPHEMERIS_TYPE = 0
CLASSIFICATION_TYPE = U
NORAD_CAT_ID   = 20262
ELEMENT_SET_NO = 999
REV_AT_EPOCH   = 65101
BSTAR          = .96246814E-4
MEAN_MOTION_DOT = .33E-5
MEAN_MOTION_DDOT = 0

CCSDS_OMM_VERS = 2.0
CREATION_DATE  = 
ORIGINATOR     = 

OBJECT_NAME    = DELTA 1 R/B
OBJECT_ID      = 1989-089B
CENTER_NAME    = EARTH
REF_FRAME      = TEME
TIME_SYSTEM    = UTC
MEAN_ELEMENT_THEORY = SGP/SGP4

EPOCH          = 2025-12-26T13:45:55.617696
MEAN_MOTION    = 14.50583291
ECCENTRICITY   = .00690102
INCLINATION    = 97.0743
RA_OF_ASC_NODE = 214.6180
ARG_OF_PERICENTER = 354.9361
MEAN_ANOMALY   = 5.1131

EPHEMERIS_TYPE = 0
CLASSIFICATION_TYPE = U
NORAD_CAT_ID   = 20323
ELEMENT_SET_NO = 999
REV_AT_EPOCH   = 88513
BSTAR          = .10365025E-3
MEAN_MOTION_DOT = .383E-5
MEAN_MOTION_DDOT = 0

CCSDS_OMM_VERS = 2.0
CREATION_DATE  = 
ORIGINATOR     = 

OBJECT_NAME    = ARIANE 40 R/B
OBJECT_ID      = 1990-005H
CENTER_NAME    = EARTH
REF_FRAME      = TEME
TIME_SYSTEM    = UTC
MEAN_ELEMENT_THEORY = SGP/SGP4

EPOCH          = 2025-12-26T10:18:36.625248
MEAN_MOTION    = 14.39808283
ECCENTRICITY   = .00111457
INCLINATION    = 98.3226
RA_OF_ASC_NODE = 58.2196
ARG_OF_PERICENTER = 68.6837
MEAN_ANOMALY   = 291.5541

EPHEMERIS_TYPE = 0
CLASSIFICATION_TYPE = U
NORAD_CAT_ID   = 20443
ELEMENT_SET_NO = 999
REV_AT_EPOCH   = 88226
BSTAR          = .10827692E-3
MEAN_MOTION_DOT = .298E-5
MEAN_MOTION_DDOT = 0

