COSMOS 1933             
1 18958U 88020A   25360.33950492  .00004475  00000+0  22352-3 0  9996
2 18958  82.5139 323.4402 0006427  92.1144 268.0825 15.17221034 39109
SL-3 R/B                
1 19046U 88032B   25360.56522523  .00005969  00000+0  28665-3 0  9995
2 19046  97.5099 339.1919 0028023 126.3208 234.0620 15.18879197 41001
SL-16 R/B               
1 19120U 88039B   25360.62832286 -.00000108  00000+0 -28179-4 0  9995
2 19120  71.0126 223.0329 0019550  92.5007 267.8357 14.19599609948019
COSMOS 1953             
1 19210U 88050A   25351.75027580  .00004793  00000+0  17925-3 0  9993
2 19210  82.5093 240.5536 0013540  56.0210 304.2313 15.26995692 25270
SL-8 R/B                
1 19257U 88053B   25360.11536682  .00000250  00000+0  89603-4 0  9992
2 19257  74.0467 248.0687 0018965  87.1511  63.7351 14.38867126966014
COSMOS 1975             
1 19573U 88093A   25360.61162404  .00008657  00000+0  32801-3 0  9995
2 19573  82.5196 190.9395 0012981  69.5288 290.7343 15.26666685  8257
SL-14 R/B               
1 19574U 88093B   25360.57370574  .00000620  00000+0  68776-4 0  9993
2 19574  82.5318 110.6857 0019241 280.8233  89.5323 14.85564064990186
SL-16 R/B               
1 19650U 88102B   25360.58557966  .00000042  00000+0  45319-4 0  9998
2 19650  71.0007 305.3099 0012230 128.1541 232.0687 14.16142543916541
INTERCOSMOS 24          
1 20261U 89080A   25360.48814687  .00000741  00000+0  20878-3 0  9997
2 20261  82.6055 152.0147 1189016 102.6413 271.0011 12.59461373657586
SL-14 R/B               
1 20262U 89080C   25360.58516268  .00000330  00000+0  96247-4 0  9991
2 20262  82.5914 220.1323 1230380 351.9497   6.3330 12.50423873651014
DELTA 1 R/B             
1 20323U 89089B   25360.57356039  .00000383  00000+0  10365-3 0  9999
2 20323  97.0743 214.6180 0069010 354.9361   5.1131 14.50583291885135
ARIANE 40 R/B           
1 20443U 90005H   25360.42959057  .00000298  00000+0  10828-3 0  9994
2 20443  98.3226  58.2196 0011145  68.6837 291.5541 14.39808283882265
